{
  "type": "FeatureCollection",
  "features": [
    {
      "type": "Feature",
      "properties": {
        "norad_id": 28890,
        "name": "BEIJING 1",
        "group": "dmc",
        "lat": -42.154677355642306,
        "lon": 128.06563392321908,
        "alt_km": 699.5506231659383,
        "timestamp": "2025-12-18T23:35:48.713857+00:00",
        "meta_object_name": "BEIJING 1",
        "meta_object_id": "2005-043A",
        "meta_epoch": "2025-12-18T13:56:45.478752",
        "meta_mean_motion": 14.63371395,
        "meta_eccentricity": 0.00155685,
        "meta_inclination": 98.2649,
        "meta_ra_of_asc_node": 120.1012,
        "meta_arg_of_pericenter": 123.9802,
        "meta_mean_anomaly": 236.2882,
        "meta_ephemeris_type": 0,
        "meta_classification_type": "U",
        "meta_norad_cat_id": 28890,
        "meta_element_set_no": 999,
        "meta_rev_at_epoch": 7423,
        "meta_bstar": 5.7983021e-05,
        "meta_mean_motion_dot": 2.51e-06,
        "meta_mean_motion_ddot": 0,
        "tle_line1": "1 28890U 05043A   25352.58108193  .00000251  00000+0  57983-4 0  9994",
        "tle_line2": "2 28890  98.2649 120.1012 0015568 123.9802 236.2882 14.63371395 74233"
      },
      "geometry": {
        "type": "Point",
        "coordinates": [
          128.06563392321908,
          -42.154677355642306
        ]
      }
    },
    {
      "type": "Feature",
      "properties": {
        "norad_id": 33320,
        "name": "HUANJING 1A (HJ-1A)",
        "group": "dmc",
        "lat": 72.62417965960323,
        "lon": -44.42918522744362,
        "alt_km": 604.6085809391207,
        "timestamp": "2025-12-18T23:35:48.713883+00:00",
        "meta_object_name": "HUANJING 1A (HJ-1A)",
        "meta_object_id": "2008-041A",
        "meta_epoch": "2025-12-18T15:10:10.652736",
        "meta_mean_motion": 14.83411278,
        "meta_eccentricity": 0.00198163,
        "meta_inclination": 97.6535,
        "meta_ra_of_asc_node": 340.6847,
        "meta_arg_of_pericenter": 15.7458,
        "meta_mean_anomaly": 344.4368,
        "meta_ephemeris_type": 0,
        "meta_classification_type": "U",
        "meta_norad_cat_id": 33320,
        "meta_element_set_no": 999,
        "meta_rev_at_epoch": 93163,
        "meta_bstar": 9.165433e-05,
        "meta_mean_motion_dot": 7.03e-06,
        "meta_mean_motion_ddot": 0,
        "tle_line1": "1 33320U 08041A   25352.63206774  .00000703  00000+0  91654-4 0  9994",
        "tle_line2": "2 33320  97.6535 340.6847 0019816  15.7458 344.4368 14.83411278931638"
      },
      "geometry": {
        "type": "Point",
        "coordinates": [
          -44.42918522744362,
          72.62417965960323
        ]
      }
    },
    {
      "type": "Feature",
      "properties": {
        "norad_id": 33321,
        "name": "HUANJING 1B (HJ-1B)",
        "group": "dmc",
        "lat": -75.77689121353893,
        "lon": 16.676114093132245,
        "alt_km": 646.130010110669,
        "timestamp": "2025-12-18T23:35:48.713898+00:00",
        "meta_object_name": "HUANJING 1B (HJ-1B)",
        "meta_object_id": "2008-041B",
        "meta_epoch": "2025-12-18T14:13:52.220928",
        "meta_mean_motion": 14.82834759,
        "meta_eccentricity": 0.00380793,
        "meta_inclination": 97.6395,
        "meta_ra_of_asc_node": 344.329,
        "meta_arg_of_pericenter": 57.1621,
        "meta_mean_anomaly": 303.325,
        "meta_ephemeris_type": 0,
        "meta_classification_type": "U",
        "meta_norad_cat_id": 33321,
        "meta_element_set_no": 999,
        "meta_rev_at_epoch": 93164,
        "meta_bstar": 8.7575904e-05,
        "meta_mean_motion_dot": 6.66e-06,
        "meta_mean_motion_ddot": 0,
        "tle_line1": "1 33321U 08041B   25352.59296552  .00000666  00000+0  87576-4 0  9999",
        "tle_line2": "2 33321  97.6395 344.3290 0038079  57.1621 303.3250 14.82834759931647"
      },
      "geometry": {
        "type": "Point",
        "coordinates": [
          16.676114093132245,
          -75.77689121353893
        ]
      }
    },
    {
      "type": "Feature",
      "properties": {
        "norad_id": 33446,
        "name": "YAOGAN-4",
        "group": "dmc",
        "lat": -10.935903968640611,
        "lon": 101.48006063423396,
        "alt_km": 628.394782571062,
        "timestamp": "2025-12-18T23:35:48.713911+00:00",
        "meta_object_name": "YAOGAN-4",
        "meta_object_id": "2008-061A",
        "meta_epoch": "2025-12-18T13:01:09.446880",
        "meta_mean_motion": 14.82698896,
        "meta_eccentricity": 0.00132274,
        "meta_inclination": 97.9189,
        "meta_ra_of_asc_node": 282.5848,
        "meta_arg_of_pericenter": 302.9674,
        "meta_mean_anomaly": 57.0267,
        "meta_ephemeris_type": 0,
        "meta_classification_type": "U",
        "meta_norad_cat_id": 33446,
        "meta_element_set_no": 999,
        "meta_rev_at_epoch": 91889,
        "meta_bstar": 0.00013597644,
        "meta_mean_motion_dot": 1.045e-05,
        "meta_mean_motion_ddot": 0,
        "tle_line1": "1 33446U 08061A   25352.54247045  .00001045  00000+0  13598-3 0  9991",
        "tle_line2": "2 33446  97.9189 282.5848 0013227 302.9674  57.0267 14.82698896918891"
      },
      "geometry": {
        "type": "Point",
        "coordinates": [
          101.48006063423396,
          -10.935903968640611
        ]
      }
    },
    {
      "type": "Feature",
      "properties": {
        "norad_id": 35681,
        "name": "DEIMOS-1",
        "group": "dmc",
        "lat": 32.36487175581356,
        "lon": -21.776762699058068,
        "alt_km": 643.0059235265517,
        "timestamp": "2025-12-18T23:35:48.713923+00:00",
        "meta_object_name": "DEIMOS-1",
        "meta_object_id": "2009-041A",
        "meta_epoch": "2025-12-18T14:47:28.123872",
        "meta_mean_motion": 14.74961023,
        "meta_eccentricity": 0.00026337,
        "meta_inclination": 97.7142,
        "meta_ra_of_asc_node": 152.9455,
        "meta_arg_of_pericenter": 70.4379,
        "meta_mean_anomaly": 289.7115,
        "meta_ephemeris_type": 0,
        "meta_classification_type": "U",
        "meta_norad_cat_id": 35681,
        "meta_element_set_no": 999,
        "meta_rev_at_epoch": 88026,
        "meta_bstar": 7.2340544e-05,
        "meta_mean_motion_dot": 4.39e-06,
        "meta_mean_motion_ddot": 0,
        "tle_line1": "1 35681U 09041A   25352.61629773  .00000439  00000+0  72341-4 0  9991",
        "tle_line2": "2 35681  97.7142 152.9455 0002633  70.4379 289.7115 14.74961023880264"
      },
      "geometry": {
        "type": "Point",
        "coordinates": [
          -21.776762699058068,
          32.36487175581356
        ]
      }
    },
    {
      "type": "Feature",
      "properties": {
        "norad_id": 35683,
        "name": "UK-DMC 2",
        "group": "dmc",
        "lat": 2.4533304660868485,
        "lon": -51.95210470915942,
        "alt_km": 645.7578568333611,
        "timestamp": "2025-12-18T23:35:48.713935+00:00",
        "meta_object_name": "UK-DMC 2",
        "meta_object_id": "2009-041C",
        "meta_epoch": "2025-12-18T14:39:30.826944",
        "meta_mean_motion": 14.75633998,
        "meta_eccentricity": 0.00014791,
        "meta_inclination": 97.8555,
        "meta_ra_of_asc_node": 127.3472,
        "meta_arg_of_pericenter": 92.4896,
        "meta_mean_anomaly": 267.6483,
        "meta_ephemeris_type": 0,
        "meta_classification_type": "U",
        "meta_norad_cat_id": 35683,
        "meta_element_set_no": 999,
        "meta_rev_at_epoch": 87993,
        "meta_bstar": 0.00011892662,
        "meta_mean_motion_dot": 7.63e-06,
        "meta_mean_motion_ddot": 0,
        "tle_line1": "1 35683U 09041C   25352.61077346  .00000763  00000+0  11893-3 0  9990",
        "tle_line2": "2 35683  97.8555 127.3472 0001479  92.4896 267.6483 14.75633998879938"
      },
      "geometry": {
        "type": "Point",
        "coordinates": [
          -51.95210470915942,
          2.4533304660868485
        ]
      }
    },
    {
      "type": "Feature",
      "properties": {
        "norad_id": 40715,
        "name": "DMC3-FM1",
        "group": "dmc",
        "lat": 81.61668734623254,
        "lon": 153.8310054644778,
        "alt_km": 607.3347940947533,
        "timestamp": "2025-12-18T23:35:48.713946+00:00",
        "meta_object_name": "DMC3-FM1",
        "meta_object_id": "2015-032A",
        "meta_epoch": "2025-12-18T15:07:29.957376",
        "meta_mean_motion": 14.85449207,
        "meta_eccentricity": 0.00043167,
        "meta_inclination": 97.6693,
        "meta_ra_of_asc_node": 219.6079,
        "meta_arg_of_pericenter": 298.1356,
        "meta_mean_anomaly": 61.9423,
        "meta_ephemeris_type": 0,
        "meta_classification_type": "U",
        "meta_norad_cat_id": 40715,
        "meta_element_set_no": 999,
        "meta_rev_at_epoch": 56310,
        "meta_bstar": 3.4758135e-05,
        "meta_mean_motion_dot": 2.48e-06,
        "meta_mean_motion_ddot": 0,
        "tle_line1": "1 40715U 15032A   25352.63020784  .00000248  00000+0  34758-4 0  9999",
        "tle_line2": "2 40715  97.6693 219.6079 0004316 298.1356  61.9423 14.85449207563105"
      },
      "geometry": {
        "type": "Point",
        "coordinates": [
          153.8310054644778,
          81.61668734623254
        ]
      }
    },
    {
      "type": "Feature",
      "properties": {
        "norad_id": 40716,
        "name": "DMC3-FM2",
        "group": "dmc",
        "lat": -33.34012815391288,
        "lon": -133.51422107092455,
        "alt_km": 615.2304222787643,
        "timestamp": "2025-12-18T23:35:48.713958+00:00",
        "meta_object_name": "DMC3-FM2",
        "meta_object_id": "2015-032B",
        "meta_epoch": "2025-12-18T15:39:53.093376",
        "meta_mean_motion": 14.85450682,
        "meta_eccentricity": 0.00049125,
        "meta_inclination": 97.675,
        "meta_ra_of_asc_node": 221.0774,
        "meta_arg_of_pericenter": 303.544,
        "meta_mean_anomaly": 56.5306,
        "meta_ephemeris_type": 0,
        "meta_classification_type": "U",
        "meta_norad_cat_id": 40716,
        "meta_element_set_no": 999,
        "meta_rev_at_epoch": 56310,
        "meta_bstar": 6.969915e-05,
        "meta_mean_motion_dot": 5.49e-06,
        "meta_mean_motion_ddot": 0,
        "tle_line1": "1 40716U 15032B   25352.65269784  .00000549  00000+0  69699-4 0  9993",
        "tle_line2": "2 40716  97.6750 221.0774 0004912 303.5440  56.5306 14.85450682563105"
      },
      "geometry": {
        "type": "Point",
        "coordinates": [
          -133.51422107092455,
          -33.34012815391288
        ]
      }
    },
    {
      "type": "Feature",
      "properties": {
        "norad_id": 40717,
        "name": "DMC3-FM3",
        "group": "dmc",
        "lat": -30.332178123605836,
        "lon": 38.504603302099966,
        "alt_km": 618.4209300056509,
        "timestamp": "2025-12-18T23:35:48.713983+00:00",
        "meta_object_name": "DMC3-FM3",
        "meta_object_id": "2015-032C",
        "meta_epoch": "2025-12-18T14:34:05.544768",
        "meta_mean_motion": 14.85440178,
        "meta_eccentricity": 0.00042156,
        "meta_inclination": 97.6805,
        "meta_ra_of_asc_node": 222.6705,
        "meta_arg_of_pericenter": 305.8054,
        "meta_mean_anomaly": 54.2769,
        "meta_ephemeris_type": 0,
        "meta_classification_type": "U",
        "meta_norad_cat_id": 40717,
        "meta_element_set_no": 999,
        "meta_rev_at_epoch": 56310,
        "meta_bstar": 0.0001270553,
        "meta_mean_motion_dot": 1.044e-05,
        "meta_mean_motion_ddot": 0,
        "tle_line1": "1 40717U 15032C   25352.60700862  .00001044  00000+0  12706-3 0  9993",
        "tle_line2": "2 40717  97.6805 222.6705 0004215 305.8054  54.2769 14.85440178563107"
      },
      "geometry": {
        "type": "Point",
        "coordinates": [
          38.504603302099966,
          -30.332178123605836
        ]
      }
    }
  ]
}